H1 CPF 01  gfz 2022 09 28 12  7712 tandemx   
H2 1003001  6202 36605    2022 09 28 12 59 42 2022 10 03 00 00 42   120 1 1  0 0 0
H9
10 0 59853   2862.000000  0   -1029994.070   -618706.694   6771851.462
10 0 59853   2982.000000  0    -851385.997    283020.075   6818754.997
10 0 59853   3102.000000  0    -642214.607   1176415.417   6745842.035
10 0 59853   3222.000000  0    -406415.532   2045389.536   6554386.089
10 0 59853   3342.000000  0    -148665.912   2874348.568   6247731.425
10 0 59853   3462.000000  0     125706.972   3648474.673   5831238.200
10 0 59853   3582.000000  0     410832.768   4353993.675   5312194.073
10 0 59853   3702.000000  0     700420.111   4978424.712   4699692.761
10 0 59853   3822.000000  0     987891.483   5510808.766   4004479.852
10 0 59853   3942.000000  0    1266525.735   5941907.946   3238767.944
10 0 59853   4062.000000  0    1529610.439   6264378.213   2416027.258
10 0 59853   4182.000000  0    1770596.944   6472904.786   1550742.788
10 0 59853   4302.000000  0    1983253.198   6564295.815    658154.187
10 0 59853   4422.000000  0    2161813.055   6537533.327   -246020.556
10 0 59853   4542.000000  0    2301116.292   6393780.688  -1145869.701
10 0 59853   4662.000000  0    2396736.949   6136346.973  -2025575.614
10 0 59853   4782.000000  0    2445096.865   5770608.991  -2869699.877
10 0 59853   4902.000000  0    2443561.286   5303892.683  -3663459.977
10 0 59853   5022.000000  0    2390514.056   4745316.171  -4392990.837
10 0 59853   5142.000000  0    2285410.318   4105600.480  -5045584.799
10 0 59853   5262.000000  0    2128806.740   3396853.887  -5609906.655
10 0 59853   5382.000000  0    1922369.265   2632335.431  -6076181.855
10 0 59853   5502.000000  0    1668857.851   1826201.559  -6436355.152
10 0 59853   5622.000000  0    1372089.853    993242.880  -6684217.479
10 0 59853   5742.000000  0    1036882.929    148615.256  -6815503.157
10 0 59853   5862.000000  0     668976.585   -692431.604  -6827955.671
10 0 59853   5982.000000  0     274934.965  -1514823.613  -6721360.773
10 0 59853   6102.000000  0    -137966.949  -2303924.384  -6497548.820
10 0 59853   6222.000000  0    -561873.606  -3045789.285  -6160368.750
10 0 59853   6342.000000  0    -988494.386  -3727409.384  -5715628.958
10 0 59853   6462.000000  0   -1409260.665  -4336938.356  -5171007.078
10 0 59853   6582.000000  0   -1815493.605  -4863901.844  -4535929.752
10 0 59853   6702.000000  0   -2198579.988  -5299384.623  -3821420.540
10 0 59853   6822.000000  0   -2550152.280  -5636190.440  -3039917.694
10 0 59853   6942.000000  0   -2862268.774  -5868971.242  -2205064.516
10 0 59853   7062.000000  0   -3127590.324  -5994323.121  -1331474.807
10 0 59853   7182.000000  0   -3339549.356  -6010845.509   -434475.992
10 0 59853   7302.000000  0   -3492505.759  -5919159.974    470165.112
10 0 59853   7422.000000  0   -3581885.501  -5721888.208   1366526.879
10 0 59853   7542.000000  0   -3604298.711  -5423589.417   2238822.346
10 0 59853   7662.000000  0   -3557633.405  -5030657.780   3071686.343
10 0 59853   7782.000000  0   -3441122.838  -4551184.028   3850453.460
10 0 59853   7902.000000  0   -3255384.940  -3994784.481   4561421.877
10 0 59853   8022.000000  0   -3002433.012  -3372401.252   5192096.988
10 0 59853   8142.000000  0   -2685657.808  -2696079.834   5731410.069
10 0 59853   8262.000000  0   -2309781.234  -1978730.100   6169908.932
10 0 59853   8382.000000  0   -1880783.829  -1233876.024   6499919.380
10 0 59853   8502.000000  0   -1405805.949   -475396.510   6715675.114
10 0 59853   8622.000000  0    -893026.021    282735.435   6813410.101
10 0 59853   8742.000000  0    -351520.016   1026708.486   6791419.781
10 0 59853   8862.000000  0     208899.077   1743124.248   6650089.700
10 0 59853   8982.000000  0     777858.943   2419238.579   6391889.196
10 0 59853   9102.000000  0    1344619.386   3043188.098   6021330.214
10 0 59853   9222.000000  0    1898274.071   3604199.577   5544893.645
10 0 59853   9342.000000  0    2427960.121   4092779.946   4970922.372
10 0 59853   9462.000000  0    2923073.072   4500882.569   4309480.744
10 0 59853   9582.000000  0    3373480.511   4822044.745   3572181.844
10 0 59853   9702.000000  0    3769731.227   5051496.618   2771988.569
10 0 59853   9822.000000  0    4103258.781   5186239.191   1922984.152
10 0 59853   9942.000000  0    4366566.008   5225081.916   1040118.958
10 0 59853  10062.000000  0    4553392.409   5168648.416    138942.769
10 0 59853  10182.000000  0    4658857.365   5019343.111   -764679.693
10 0 59853  10302.000000  0    4679575.404   4781279.660  -1654856.007
10 0 59853  10422.000000  0    4613742.151   4460177.029  -2515952.873
10 0 59853  10542.000000  0    4461188.003   4063224.490  -3332876.888
10 0 59853  10662.000000  0    4223397.899   3598918.854  -4091342.946
10 0 59853  10782.000000  0    3903497.362   3076878.563  -4778123.198
10 0 59853  10902.000000  0    3506207.525   2507640.216  -5381273.510
10 0 59853  11022.000000  0    3037769.287   1902442.512  -5890334.193
10 0 59853  11142.000000  0    2505838.786   1273002.097  -6296501.293
10 0 59853  11262.000000  0    1919357.215    631286.817  -6592766.824
10 0 59853  11382.000000  0    1288399.121    -10708.748  -6774027.702
10 0 59853  11502.000000  0     624000.592   -641183.059  -6837166.110
10 0 59853  11622.000000  0     -62032.122  -1248740.182  -6781096.361
10 0 59853  11742.000000  0    -757326.909  -1822589.662  -6606780.231
10 0 59853  11862.000000  0   -1449163.104  -2352733.190  -6317213.505
10 0 59853  11982.000000  0   -2124699.034  -2830136.524  -5917380.085
10 0 59853  12102.000000  0   -2771205.024  -3246882.267  -5414175.043
10 0 59853  12222.000000  0   -3376300.772  -3596303.307  -4816298.232
10 0 59853  12342.000000  0   -3928193.568  -3873094.086  -4134115.127
10 0 59853  12462.000000  0   -4415910.616  -4073395.916  -3379487.112
10 0 59853  12582.000000  0   -4829522.036  -4194855.463  -2565573.484
10 0 59853  12702.000000  0   -5160349.036  -4236654.114  -1706606.288
10 0 59853  12822.000000  0   -5401151.691  -4199506.590   -817642.218
10 0 59853  12942.000000  0   -5546291.558  -4085628.804     85703.991
10 0 59853  13062.000000  0   -5591864.825  -3898675.305    987539.860
10 0 59853  13182.000000  0   -5535801.079  -3643647.020   1871984.212
10 0 59853  13302.000000  0   -5377924.143  -3326770.291   2723456.591
10 0 59853  13422.000000  0   -5119974.457  -2955351.918   3526959.757
10 0 59853  13542.000000  0   -4765592.829  -2537614.183   4268350.663
10 0 59853  13662.000000  0   -4320264.998  -2082512.742   4934593.670
10 0 59853  13782.000000  0   -3791229.931  -1599543.779   5513989.015
10 0 59853  13902.000000  0   -3187356.067  -1098545.693   5996375.753
10 0 59853  14022.000000  0   -2518986.111   -589497.650   6373307.268
10 0 59853  14142.000000  0   -1797752.699    -82319.237   6638193.733
10 0 59853  14262.000000  0   -1036371.015    413322.172   6786409.639
10 0 59853  14382.000000  0    -248413.302    888193.866   6815369.332
10 0 59853  14502.000000  0     551932.954   1333669.023   6724569.267
10 0 59853  14622.000000  0    1350119.766   1741883.395   6515596.398
10 0 59853  14742.000000  0    2131502.434   2105874.385   6192101.505
10 0 59853  14862.000000  0    2881607.537   2419700.008   5759739.589
10 0 59853  14982.000000  0    3586402.891   2678537.422   5226077.513
10 0 59853  15102.000000  0    4232563.646   2878758.709   4600466.957
10 0 59853  15222.000000  0    4807728.060   3017982.658   3893886.108
10 0 59853  15342.000000  0    5300742.571   3095101.692   3118752.263
10 0 59853  15462.000000  0    5701886.900   3110280.789   2288701.800
10 0 59853  15582.000000  0    6003071.527   3064930.672   1418348.981
10 0 59853  15702.000000  0    6198007.415   2961655.675    523023.371
10 0 59853  15822.000000  0    6282340.025   2804175.597   -381508.644
10 0 59853  15942.000000  0    6253743.823   2597223.378  -1279330.833
10 0 59853  16062.000000  0    6111975.405   2346422.656  -2154664.378
10 0 59853  16182.000000  0    5858886.949   2058150.274  -2992152.040
10 0 59853  16302.000000  0    5498396.598   1739383.472  -3777132.908
10 0 59853  16422.000000  0    5036418.438   1397537.377  -4495900.877
10 0 59853  16542.000000  0    4480752.845   1040296.952  -5135941.511
10 0 59853  16662.000000  0    3840943.273    675449.205  -5686142.431
10 0 59853  16782.000000  0    3128103.395    310718.097  -6136977.095
10 0 59853  16902.000000  0    2354716.716    -46394.121  -6480658.993
10 0 59853  17022.000000  0    1534414.921   -388756.406  -6711264.111
10 0 59853  17142.000000  0     681739.033   -709746.814  -6824823.668
10 0 59853  17262.000000  0    -188116.018  -1003376.605  -6819385.122
10 0 59853  17382.000000  0   -1059565.914  -1264398.183  -6695040.659
10 0 59853  17502.000000  0   -1916909.148  -1488396.442  -6453926.649
10 0 59853  17622.000000  0   -2744603.937  -1671862.213  -6100190.572
10 0 59853  17742.000000  0   -3527543.403  -1812246.328  -5639926.782
10 0 59853  17862.000000  0   -4251328.922  -1907994.982  -5081083.780
10 0 59853  17982.000000  0   -4902537.418  -1958564.544  -4433338.423
10 0 59853  18102.000000  0   -5468975.163  -1964415.308  -3707939.356
10 0 59853  18222.000000  0   -5939914.868  -1926984.528  -2917521.135
10 0 59853  18342.000000  0   -6306309.569  -1848638.363  -2075889.786
10 0 59853  18462.000000  0   -6560977.859  -1732603.443  -1197784.086
10 0 59853  18582.000000  0   -6698755.578  -1582879.625   -298615.841
10 0 59853  18702.000000  0   -6716609.478  -1404135.459    605805.661
10 0 59853  18822.000000  0   -6613708.790  -1201588.689   1499559.523
10 0 59853  18942.000000  0   -6391452.063   -980875.347   2366902.632
10 0 59853  19062.000000  0   -6053448.975   -747910.762   3192555.923
10 0 59853  19182.000000  0   -5605457.692   -508745.455   3961981.560
10 0 59853  19302.000000  0   -5055277.913   -269420.124   4661644.689
99
